{
  "generatedAtUtc": "2026-03-18T01:18:46.528Z",
  "provider": "starlink",
  "sourceRootHint": "../tle_data",
  "sourceFile": "starlink/json/starlink_20260316.json",
  "sourceRecordCount": 9839,
  "sampledRecordCount": 400,
  "replayWindowStartUtc": "2026-03-16T21:04:17.212Z",
  "replayWindowDurationSec": 6000,
  "bootstrapStartOffsetSec": 3600,
  "observer": {
    "latDeg": 40,
    "lonDeg": 116,
    "altKm": 0.05
  },
  "selectionPolicy": {
    "mode": "constellation-even",
    "serviceMinElevationDeg": 25,
    "analysisWindowSec": 6000,
    "rankingPolicyId": "even-norad-order",
    "note": "Current fixture was generated with constellation-wide even sampling. Future fixtures should use observer-local-pass mode (RTLP D2)."
  },
  "replayModeSupport": {
    "researchDefault": true,
    "demoLoopSupported": true
  },
  "records": [
    {
      "objectName": "STARLINK-1017",
      "objectId": "2019-074L",
      "noradId": 44723,
      "epochUtc": "2026-03-16T13:23:29.116032Z",
      "meanMotionRevPerDay": 15.24875506,
      "eccentricity": 0.0002205,
      "inclinationDeg": 53.0542,
      "raanDeg": 139.7552,
      "argPerigeeDeg": 47.6182,
      "meanAnomalyDeg": 312.5002,
      "bstar": 0.0015568,
      "meanMotionDot": 0.00039082,
      "meanMotionDdot": 0,
      "elementSetNo": 999,
      "revAtEpoch": 35001
    },
    {
      "objectName": "STARLINK-1169",
      "objectId": "2020-006T",
      "noradId": 45061,
      "epochUtc": "2026-03-16T20:15:46.885824Z",
      "meanMotionRevPerDay": 15.30193174,
      "eccentricity": 0.0001482,
      "inclinationDeg": 53.1594,
      "raanDeg": 247.76,
      "argPerigeeDeg": 91.1749,
      "meanAnomalyDeg": 268.9422,
      "bstar": -0.000037039,
      "meanMotionDot": -0.00001456,
      "meanMotionDdot": 0,
      "elementSetNo": 999,
      "revAtEpoch": 33764
    },
    {
      "objectName": "STARLINK-1281",
      "objectId": "2020-019L",
      "noradId": 45370,
      "epochUtc": "2026-03-16T20:32:44.047968Z",
      "meanMotionRevPerDay": 15.30185757,
      "eccentricity": 0.0001863,
      "inclinationDeg": 53.161,
      "raanDeg": 132.001,
      "argPerigeeDeg": 92.016,
      "meanAnomalyDeg": 268.1055,
      "bstar": -0.000066515,
      "meanMotionDot": -0.00002328,
      "meanMotionDdot": 0,
      "elementSetNo": 999,
      "revAtEpoch": 33085
    },
    {
      "objectName": "STARLINK-1308",
      "objectId": "2020-019BM",
      "noradId": 45419,
      "epochUtc": "2026-03-15T13:05:34.439136Z",
      "meanMotionRevPerDay": 15.51722212,
      "eccentricity": 0.00033543,
      "inclinationDeg": 53.0538,
      "raanDeg": 123.9603,
      "argPerigeeDeg": 35.9116,
      "meanAnomalyDeg": 324.2117,
      "bstar": 0.0012967168,
      "meanMotionDot": 0.0007892,
      "meanMotionDdot": 0,
      "elementSetNo": 999,
      "revAtEpoch": 33058
    },
    {
      "objectName": "STARLINK-1575",
      "objectId": "2020-062AA",
      "noradId": 46349,
      "epochUtc": "2026-03-16T20:00:01.999008Z",
      "meanMotionRevPerDay": 15.87678559,
      "eccentricity": 0.0005205,
      "inclinationDeg": 53.0248,
      "raanDeg": 226.5249,
      "argPerigeeDeg": 236.6612,
      "meanAnomalyDeg": 345.559,
      "bstar": 0.0012566,
      "meanMotionDot": 0.00356925,
      "meanMotionDdot": 0,
      "elementSetNo": 999,
      "revAtEpoch": 602
    },
    {
      "objectName": "STARLINK-1795",
      "objectId": "2020-073AC",
      "noradId": 46696,
      "epochUtc": "2026-03-16T20:00:01.999008Z",
      "meanMotionRevPerDay": 15.6862562,
      "eccentricity": 0.0002917,
      "inclinationDeg": 53.0407,
      "raanDeg": 145.6479,
      "argPerigeeDeg": 63.7108,
      "meanAnomalyDeg": 283.8343,
      "bstar": -0.000090528,
      "meanMotionDot": -0.00011059,
      "meanMotionDdot": 0,
      "elementSetNo": 999,
      "revAtEpoch": 598
    },
    {
      "objectName": "STARLINK-1820",
      "objectId": "2020-073AZ",
      "noradId": 46717,
      "epochUtc": "2026-03-16T20:00:01.999008Z",
      "meanMotionRevPerDay": 15.92508428,
      "eccentricity": 0.0006938,
      "inclinationDeg": 53.0372,
      "raanDeg": 126.0133,
      "argPerigeeDeg": 8.9047,
      "meanAnomalyDeg": 270.0021,
      "bstar": 0.00079411,
      "meanMotionDot": 0.0027444,
      "meanMotionDdot": 0.000039586,
      "elementSetNo": 999,
      "revAtEpoch": 603
    },
    {
      "objectName": "STARLINK-1856",
      "objectId": "2020-088X",
      "noradId": 47143,
      "epochUtc": "2026-03-16T20:00:01.999008Z",
      "meanMotionRevPerDay": 15.50501668,
      "eccentricity": 0.0004865,
      "inclinationDeg": 53.0501,
      "raanDeg": 238.9614,
      "argPerigeeDeg": 182.0701,
      "meanAnomalyDeg": 171.7646,
      "bstar": 0.0019725,
      "meanMotionDot": 0.00115726,
      "meanMotionDdot": 0,
      "elementSetNo": 999,
      "revAtEpoch": 594
    },
    {
      "objectName": "STARLINK-2377",
      "objectId": "2021-018L",
      "noradId": 47797,
      "epochUtc": "2026-03-16T03:18:26.199936Z",
      "meanMotionRevPerDay": 15.29343132,
      "eccentricity": 0.00013061,
      "inclinationDeg": 53.1561,
      "raanDeg": 225.1319,
      "argPerigeeDeg": 102.948,
      "meanAnomalyDeg": 257.1666,
      "bstar": 0.00001207922,
      "meanMotionDot": -7e-8,
      "meanMotionDdot": 0,
      "elementSetNo": 999,
      "revAtEpoch": 27753
    },
    {
      "objectName": "STARLINK-2291",
      "objectId": "2021-021C",
      "noradId": 47862,
      "epochUtc": "2026-03-16T18:52:14.528928Z",
      "meanMotionRevPerDay": 15.30187425,
      "eccentricity": 0.000122,
      "inclinationDeg": 53.1588,
      "raanDeg": 222.2968,
      "argPerigeeDeg": 113.7415,
      "meanAnomalyDeg": 246.3714,
      "bstar": -0.000015176,
      "meanMotionDot": -0.00000808,
      "meanMotionDdot": 0,
      "elementSetNo": 999,
      "revAtEpoch": 27751
    },
    {
      "objectName": "STARLINK-2355",
      "objectId": "2021-021AM",
      "noradId": 47895,
      "epochUtc": "2026-03-16T20:58:58.231776Z",
      "meanMotionRevPerDay": 15.30190474,
      "eccentricity": 0.0001005,
      "inclinationDeg": 53.1573,
      "raanDeg": 234.7765,
      "argPerigeeDeg": 96.1793,
      "meanAnomalyDeg": 263.9322,
      "bstar": 0.000055836,
      "meanMotionDot": 0.00001295,
      "meanMotionDdot": 0,
      "elementSetNo": 999,
      "revAtEpoch": 27732
    },
    {
      "objectName": "STARLINK-2356",
      "objectId": "2021-021AN",
      "noradId": 47896,
      "epochUtc": "2026-03-16T20:20:20.181984Z",
      "meanMotionRevPerDay": 15.30176454,
      "eccentricity": 0.0001084,
      "inclinationDeg": 53.1574,
      "raanDeg": 247.7396,
      "argPerigeeDeg": 96.8218,
      "meanAnomalyDeg": 263.2906,
      "bstar": 0.00028468,
      "meanMotionDot": 0.00008076,
      "meanMotionDdot": 0,
      "elementSetNo": 999,
      "revAtEpoch": 27711
    },
    {
      "objectName": "STARLINK-2404",
      "objectId": "2021-027B",
      "noradId": 48093,
      "epochUtc": "2026-03-16T20:02:25.950912Z",
      "meanMotionRevPerDay": 15.3017928,
      "eccentricity": 0.0001748,
      "inclinationDeg": 53.1604,
      "raanDeg": 121.7633,
      "argPerigeeDeg": 86.1076,
      "meanAnomalyDeg": 274.0124,
      "bstar": -0.000037173,
      "meanMotionDot": -0.00001459,
      "meanMotionDdot": 0,
      "elementSetNo": 999,
      "revAtEpoch": 27375
    }
  ]
}
