STARLINK-1017           
1 44723U 19074L   26075.55797588  .00039082  00000+0  15568-2 0  9993
2 44723  53.0542 139.7552 0002205  47.6182 312.5002 15.24875506350015
STARLINK-1169           
1 45061U 20006T   26075.84429266 -.00001456  00000+0 -37039-4 0  9998
2 45061  53.1594 247.7600 0001482  91.1749 268.9422 15.30193174337647
STARLINK-1281           
1 45370U 20019L   26075.85606537 -.00002328  00000+0 -66515-4 0  9994
2 45370  53.1610 132.0010 0001863  92.0160 268.1055 15.30185757330858
STARLINK-1308           
1 45419U 20019BM  26074.54553749  .00078920  00000+0  12967-2 0  9998
2 45419  53.0538 123.9603 0003354  35.9116 324.2117 15.51722212330580
STARLINK-1575           
1 46349U 20062AA  26075.83335647  .00356925  00000+0  12566-2 0  9996
2 46349  53.0248 226.5249 0005205 236.6612 345.5590 15.87678559  6028
STARLINK-1795           
1 46696U 20073AC  26075.83335647 -.00011059  00000+0 -90528-4 0  9997
2 46696  53.0407 145.6479 0002917  63.7108 283.8343 15.68625620  5986
STARLINK-1820           
1 46717U 20073AZ  26075.83335647  .00274440  39586-4  79411-3 0  9997
2 46717  53.0372 126.0133 0006938   8.9047 270.0021 15.92508428  6032
STARLINK-1856           
1 47143U 20088X   26075.83335647  .00115726  00000+0  19725-2 0  9993
2 47143  53.0501 238.9614 0004865 182.0701 171.7646 15.50501668  5947
STARLINK-2377           
1 47797U 21018L   26075.13780324 -.00000007  00000+0  12079-4 0  9994
2 47797  53.1561 225.1319 0001306 102.9480 257.1666 15.29343132277534
STARLINK-2291           
1 47862U 21021C   26075.78627927 -.00000808  00000+0 -15176-4 0  9992
2 47862  53.1588 222.2968 0001220 113.7415 246.3714 15.30187425277512
STARLINK-2355           
1 47895U 21021AM  26075.87428509  .00001295  00000+0  55836-4 0  9999
2 47895  53.1573 234.7765 0001005  96.1793 263.9322 15.30190474277326
STARLINK-2356           
1 47896U 21021AN  26075.84745581  .00008076  00000+0  28468-3 0  9993
2 47896  53.1574 247.7396 0001084  96.8218 263.2906 15.30176454277118
STARLINK-2404           
1 48093U 21027B   26075.83502258 -.00001459  00000+0 -37173-4 0  9994
2 48093  53.1604 121.7633 0001748  86.1076 274.0124 15.30179280273756
